ONEWEB-0012             
1 44057U 19010A   24233.44381208  .00000015  00000+0  66312-5 0  9993
2 44057  87.9154   1.3592 0000880  94.5171 265.6060 13.16594685263968
ONEWEB-0010             
1 44058U 19010B   24233.31715102 -.00000041  00000+0 -14117-3 0  9999
2 44058  87.9155   1.3642 0001530 116.1995 243.9293 13.16593624263996
ONEWEB-0008             
1 44059U 19010C   24233.41849188  .00000104  00000+0  23722-3 0  9993
2 44059  87.9155   1.3453 0002002  92.9004 267.2356 13.16600180264125
ONEWEB-0007             
1 44060U 19010D   24233.53318887  .00000058  00000+0  11989-3 0  9995
2 44060  87.9052  31.6627 0001362  89.0433 271.0853 13.15548485263855
ONEWEB-0006             
1 44061U 19010E   24233.46109174  .00000000  00000+0 -34507-4 0  9995
2 44061  87.9042  31.6545 0001451  94.9496 265.1800 13.15548106263897
ONEWEB-0011             
1 44062U 19010F   24234.41968181  .00003981  00000+0  10529-1 0  9998
2 44062  87.9043  31.4650 0001573 110.3994 249.7305 13.15587084264049
ONEWEB-0013             
1 45131U 20008A   24234.38006393  .00000141  00000+0  37396-3 0  9997
2 45131  87.8684 186.5747 0002079  51.3466 308.7847 13.09391306219822
ONEWEB-0017             
1 45132U 20008B   24233.84952669 -.00000560  00000+0 -16410-2 0  9994
2 45132  87.8988 168.6386 0001886  83.7212 276.4130 13.10370318221587
